COSMOS 2425 (716)       
1 29670U 06062A   21042.51237983  .00000055  00000-0  00000-0 0  9995
2 29670  64.8788 259.7049 0024877 349.3224  18.3353  2.13113321109996
COSMOS 2433 (720)       
1 32275U 07052A   21042.42377454 -.00000067  00000-0  00000-0 0  9992
2 32275  66.0416  20.9712 0005125 266.1947 212.6799  2.13104279103507
COSMOS 2432 (719)       
1 32276U 07052B   21042.39636947 -.00000067  00000-0  00000-0 0  9994
2 32276  66.0539  21.0651 0012126 320.1147  87.3081  2.13103580103505
COSMOS 2434 (721)       
1 32393U 07065A   21042.22226179  .00000059  00000-0  00000-0 0  9992
2 32393  64.4920 258.2317 0004659  75.6576 136.6584  2.13103066102205
COSMOS 2436 (723)       
1 32395U 07065C   21042.43333008  .00000056  00000-0  00000-0 0  9994
2 32395  64.5033 258.2776 0016113   6.1990 144.1905  2.13102975102141
COSMOS 2456 (730)       
1 36111U 09070A   21042.53957199 -.00000012  00000-0  00000+0 0  9998
2 36111  64.2568 137.9002 0003178 318.4024 309.5618  2.13099104 86878
COSMOS 2457 (733)       
1 36112U 09070B   21042.47288097 -.00000013  00000-0  00000-0 0  9998
2 36112  64.2390 137.7903 0005616 163.6398 176.5365  2.13101365 86877
COSMOS 2459 (731)       
1 36400U 10007A   21042.27794252 -.00000068  00000-0  00000-0 0  9993
2 36400  65.9402  19.9169 0026415 344.3551 238.8240  2.13105080 85212
COSMOS 2461 (735)       
1 36401U 10007B   21042.27516006 -.00000068  00000-0  00000-0 0  9993
2 36401  65.9356  19.8797 0020572 359.6621 223.2728  2.13103776 85222
COSMOS 2460 (732)       
1 36402U 10007C   21042.34521632 -.00000069  00000-0  00000-0 0  9994
2 36402  65.9229  19.8389 0002517 290.8082 289.4238  2.13106587 85228
COSMOS 2464 (736)       
1 37139U 10041C   21042.55338625  .00000054  00000-0  00000-0 0  9994
2 37139  64.0942 257.5404 0029051  13.1966 315.0018  2.13100792 81282
COSMOS 2471 (701K)      
1 37372U 11009A   21042.47585318 -.00000069  00000-0  00000-0 0  9999
2 37372  65.9190  19.7718 0010079 236.9554 247.0994  2.13107428 77500
COSMOS 2476 (744)       
1 37867U 11064A   21042.19606596 -.00000016  00000-0  00000-0 0  9992
2 37867  64.5532 139.0753 0019956 235.3272  30.3729  2.13101868 72216
COSMOS 2477 (745)       
1 37868U 11064B   21042.05854999 -.00000018  00000-0  00000-0 0  9992
2 37868  64.5616 139.1394 0017472 236.0392 102.5525  2.13101667 72161
COSMOS 2475 (743)       
1 37869U 11064C   21042.29727281 -.00000015  00000-0  00000-0 0  9999
2 37869  64.5694 139.1352 0021288 257.4119 221.9120  2.13101780 72181
COSMOS 2485 (747)       
1 39155U 13019A   21042.60712056 -.00000012  00000-0  00000-0 0  9997
2 39155  64.7205 139.3823 0020641 230.9657  34.5883  2.13101791 60690
COSMOS 2492 (754)       
1 39620U 14012A   21042.44927899 -.00000069  00000-0  00000-0 0  9995
2 39620  65.8112  19.5847 0015320 318.4444 220.9380  2.13103273 53642
COSMOS 2500 (755)       
1 40001U 14032A   21042.63090828 -.00000070  00000-0  00000-0 0  9998
2 40001  65.7512  19.4756 0007060 225.8545 312.7947  2.13102519 51866
COSMOS 2501 (702K)      
1 40315U 14075A   21042.38823985  .00000055  00000-0  00000-0 0  9995
2 40315  63.8052 258.4025 0015442 207.6463 310.7273  2.13101051 48266
COSMOS 2514 (751)       
1 41330U 16008A   21042.39096194 -.00000070  00000-0  00000-0 0  9994
2 41330  65.5543  19.2980 0011000 227.4268 310.0522  2.13102954 39027
COSMOS 2516 (753)       
1 41554U 16032A   21042.53847059  .00000053  00000-0  00000-0 0  9999
2 41554  64.0322 258.5347 0011334 216.0573 327.1284  2.13106796 36638
COSMOS 2522 (752)       
1 42939U 17055A   21042.40647002  .00000055  00000-0  00000-0 0  9997
2 42939  64.2664 258.7910 0005305 254.1292  53.1861  2.13102061 26386
COSMOS 2527 (756)       
1 43508U 18053A   21042.44950715 -.00000013  00000-0  00000-0 0  9996
2 43508  64.8854 139.2868 0007452 225.4722 146.8633  2.13102593 20689
COSMOS 2529 (757)       
1 43687U 18086A   21042.54304367  .00000054  00000-0  00000-0 0  9991
2 43687  64.4788 258.9689 0008193 281.2293  86.4185  2.13102146 17709
COSMOS 2534 (758)       
1 44299U 19030A   21042.12891353  .00000059  00000-0  00000-0 0  9996
2 44299  64.5475 258.8228 0011776 299.6087 245.2265  2.13101960 13338
COSMOS 2544 (759)       
1 44850U 19088A   21042.26663508 -.00000015  00000-0  00000-0 0  9999
2 44850  64.8691 139.1548 0011062 260.6024  15.3049  2.13102334  9110
COSMOS 2545 (760)       
1 45358U 20018A   21042.40647002 -.00000070  00000-0  00000-0 0  9996
2 45358  64.8847  20.3112 0011205 258.5018 334.8621  2.13102773  7067
